[{"OBJECT_NAME":"STARLINK-36202","OBJECT_ID":"2025-298V","EPOCH":"2026-03-09T22:18:08.038080","MEAN_MOTION":14.99160974,"ECCENTRICITY":0.00024266,"INCLINATION":70.0038,"RA_OF_ASC_NODE":13.8431,"ARG_OF_PERICENTER":236.7757,"MEAN_ANOMALY":123.317,"EPHEMERIS_TYPE":0,"CLASSIFICATION_TYPE":"U","NORAD_CAT_ID":67094,"ELEMENT_SET_NO":999,"REV_AT_EPOCH":1325,"BSTAR":0.00049737229,"MEAN_MOTION_DOT":5.975e-5,"MEAN_MOTION_DDOT":0},{"OBJECT_NAME":"COSMOS 2251 DEB","OBJECT_ID":"1993-036BGY","EPOCH":"2026-03-01T01:33:38.892672","MEAN_MOTION":14.73348638,"ECCENTRICITY":0.01207011,"INCLINATION":73.9501,"RA_OF_ASC_NODE":201.0621,"ARG_OF_PERICENTER":60.0186,"MEAN_ANOMALY":301.2902,"EPHEMERIS_TYPE":0,"CLASSIFICATION_TYPE":"U","NORAD_CAT_ID":37126,"ELEMENT_SET_NO":999,"REV_AT_EPOCH":9252,"BSTAR":0.00023487256,"MEAN_MOTION_DOT":1.671e-5,"MEAN_MOTION_DDOT":0}]
